INTELSAT 26 (IS-26)     
1 24732U 97007A   19135.80604997  .00000005  00000-0  00000-0 0  9998
2 24732   8.4827  45.3884 0006596 350.2011 189.9909  1.00271667 46778
GALAXY 25 (G-25)        
1 24812U 97026A   19135.80257740 -.00000176  00000-0  00000-0 0  9998
2 24812   1.0040  93.4625 0003470 317.1044  18.5143  1.00272443 80404
INTELSAT 5 (IS-5)       
1 24916U 97046A   19135.47291997  .00000079  00000-0  00000+0 0  9990
2 24916   4.9121  67.6661 0005138 340.3985 218.1006  1.00271480 79649
INTELSAT 805 (IS-805)   
1 25371U 98037A   19135.82113396 -.00000043  00000-0  00000+0 0  9994
2 25371   1.5381  90.7715 0003631 327.9916 279.1979  1.00271604 76599
GALAXY 11 (G-11)        
1 26038U 99071A   19136.13382850 -.00000229  00000-0  00000+0 0  9998
2 26038   0.2966 105.9754 0002805 335.1341 177.2962  0.99956139 71115
INTELSAT 9 (IS-9)       
1 26451U 00043A   19135.80063352 -.00000020  00000-0  00000-0 0  9994
2 26451   4.9007  67.8703 0003838 338.8172 180.9074  1.00272084 18186
INTELSAT 12 (IS-12)     
1 26590U 00068A   19135.80019734  .00000001  00000-0  00000+0 0  9997
2 26590   2.0067  88.2933 0005192 334.6772 162.5625  1.00269996 67834
INTELSAT 1R (IS-1R)     
1 26608U 00072A   19136.28088980 -.00000150  00000-0  00000+0 0  9990
2 26608   1.8151  89.1233 0000115   7.8680  34.9267  1.00271411 67698
INTELSAT 10 (IS-10)     
1 26766U 01019A   19136.01218059  .00000113  00000-0  00000+0 0  9998
2 26766   3.0081  81.4998 0003355 349.2703 214.5632  1.00268355 65963
INTELSAT 901 (IS-901)   
1 26824U 01024A   19136.35580274 -.00000226  00000-0  00000+0 0  9993
2 26824   0.9865  93.3077 0003110 322.2422 276.8169  1.00272351 65633
INTELSAT 902 (IS-902)   
1 26900U 01039A   19135.84007854  .00000019  00000-0  00000+0 0  9994
2 26900   0.0191 124.3301 0003010 296.7680 176.6005  1.00272963 64809
DIRECTV 4S              
1 26985U 01052A   19136.03035447 -.00000127  00000-0  00000+0 0  9994
2 26985   0.0181 288.1456 0002917 116.5871  98.4564  1.00269987 64035
INTELSAT 904 (IS-904)   
1 27380U 02007A   19136.36993729  .00000074  00000-0  00000+0 0  9997
2 27380   0.5353  97.4870 0002512 307.5935 337.7038  1.00157680 63137
INTELSAT 903 (IS-903)   
1 27403U 02016A   19136.13382850 -.00000237  00000-0  00000+0 0  9997
2 27403   1.3706  91.8138 0002940 340.5823 177.8411  1.00271748 62686
DIRECTV 5 (TEMPO 1)     
1 27426U 02023A   19135.69362678 -.00000070  00000-0  00000-0 0  9992
2 27426   0.0109  99.2788 0003533 316.4712 316.9653  1.00273020 62369
INTELSAT 905 (IS-905)   
1 27438U 02027A   19134.15813284 -.00000198  00000-0  00000-0 0  9994
2 27438   0.3488  98.9981 0002604 286.0456 239.0088  1.00271343 61981
GALAXY 3C (G-3C)        
1 27445U 02030A   19136.11091069 -.00000165  00000-0  00000+0 0  9996
2 27445   0.0187 299.5706 0002287  30.3343 208.5315  1.00273318 61997
INTELSAT 906 (IS-906)   
1 27513U 02041A   19136.15908584  .00000001  00000-0  00000+0 0  9995
2 27513   0.0178 266.9003 0002370 163.3403 284.7671  1.00271242 61005
INTELSAT 907 (IS-907)   
1 27683U 03007A   19135.85367295 -.00000216  00000-0  00000-0 0  9990
2 27683   0.0207 239.6278 0002541 165.4033 108.0642  1.00271452 59476
GALAXY 12 (G-12)        
1 27715U 03013B   19135.68987564  .00000045  00000-0  00000-0 0  9990
2 27715   0.5708  95.7130 0002500 332.4550 284.3046  1.00271063 26171
GALAXY 23 (G-23)        
1 27854U 03034A   19136.31995334 -.00000000  00000-0  00000+0 0  9993
2 27854   0.0123 288.1885 0002882 123.3909 176.3577  1.00272265 62583
GALAXY 13 (HORIZONS 1)  
1 27954U 03044A   19136.17682031  .00000035  00000-0  00000+0 0  9993
2 27954   0.0470 107.5122 0000327 104.9155 317.8046  1.00269003 57197
DIRECTV 7S              
1 28238U 04016A   19136.12262125 -.00000012  00000-0  00000+0 0  9998
2 28238   0.0150 305.7396 0003165 110.2759 102.6131  1.00271027 55097
INTELSAT 10-02          
1 28358U 04022A   19136.11507552 -.00000025  00000-0  00000+0 0  9997
2 28358   0.0146 287.6942 0003238 122.2492 224.0473  1.00271057 54661
XM-3 (RHYTHM)           
1 28626U 05008A   19135.84224507 -.00000219  00000-0  00000+0 0  9990
2 28626   0.0174  81.5486 0000744   1.0536   8.7739  1.00265717 52101
SPACEWAY 1              
1 28644U 05015A   19135.68786921  .00000090  00000-0  00000-0 0  9990
2 28644   0.2162  98.8951 0000557 215.9037  27.0634  1.00272742 20628
DIRECTV 8               
1 28659U 05019A   19136.38269660 -.00000129  00000-0  00000+0 0  9997
2 28659   0.0090 310.7996 0003287 103.6845 216.3265  1.00269815 51220
GALAXY 28 (G-28)        
1 28702U 05022A   19136.38854373 -.00000199  00000-0  00000+0 0  9998
2 28702   0.0050  40.5451 0003476  61.1996 182.9343  1.00271718 50863
GALAXY 14 (G-14)        
1 28790U 05030A   19135.69057352  .00000023  00000-0  00000+0 0  9994
2 28790   0.0114 342.6674 0002682  65.7935 308.2653  1.00270763 50344
GALAXY 15 (G-15)        
1 28884U 05041A   19135.68909051  .00000065  00000-0  00000-0 0  9998
2 28884   0.0194 296.8763 0001588 114.0183 297.3031  1.00274004 49788
SPACEWAY 2              
1 28903U 05046B   19136.38403730 -.00000140  00000-0  00000+0 0  9990
2 28903   0.0053  50.2021 0000195  63.1066 159.6698  1.00270142 49531
GALAXY 16 (G-16)        
1 29236U 06023A   19136.38385017 -.00000140  00000-0  00000+0 0  9993
2 29236   0.0073 332.3552 0002813  82.4254 218.1926  1.00271869 47303
DIRECTV 9S              
1 29494U 06043A   19136.12202223 -.00000128  00000-0  00000+0 0  9996
2 29494   0.0168 248.5695 0003273 166.6704 121.1365  1.00272601 46142
XM-4 (BLUES)            
1 29520U 06049A   19135.71229899 -.00000036  00000-0  00000-0 0  9993
2 29520   0.0022  51.7933 0000373 291.2967  31.1899  1.00270083 25516
GALAXY 17 (G-17)        
1 31307U 07016B   19135.80257740 -.00000188  00000-0  00000+0 0  9997
2 31307   0.0534  97.7895 0003595 319.3650  14.0066  1.00272473 44115
DIRECTV 10              
1 31862U 07032A   19136.12584897 -.00000116  00000-0  00000+0 0  9994
2 31862   0.0056 325.7891 0000172 105.8849 104.3208  1.00271981 43445
SPACEWAY 3              
1 32018U 07036A   19135.80257740 -.00000165  00000-0  00000-0 0  9995
2 32018   0.0053  56.7786 0000461 286.3024  84.1272  1.00270141 20607
INTELSAT 11 (IS-11)     
1 32253U 07044B   19136.28130331 -.00000282  00000-0  00000+0 0  9993
2 32253   0.0159 295.8767 0001930 143.5263 212.5786  1.00271038 42563
HORIZONS 2              
1 32388U 07063B   19136.09424358 -.00000195  00000-0  00000+0 0  9990
2 32388   0.0133 318.8997 0003628 102.8879 290.5035  1.00269119 41921
DIRECTV 11              
1 32729U 08013A   19136.12637238 -.00000139  00000-0  00000+0 0  9990
2 32729   0.0029  35.6183 0000232 335.7854 168.4627  1.00270894 40979
GALAXY 18 (G-18)        
1 32951U 08024A   19136.12183612  .00000011  00000-0  00000+0 0  9999
2 32951   0.0181 293.8220 0003318 128.1237  92.4600  1.00271489 40127
INTELSAT 25 (IS-25)     
1 33153U 08034A   19136.13382850 -.00000237  00000-0  00000+0 0  9992
2 33153   0.0140 256.6436 0001865  99.8536 253.7235  1.00273967 39671
GALAXY 19 (G-19)        
1 33376U 08045A   19136.30190961 -.00000152  00000-0  00000+0 0  9996
2 33376   0.0174 293.5840 0003658 132.4532 179.3654  1.00269235 38878
SIRIUS FM-5             
1 35493U 09034A   19135.80257740 -.00000214  00000-0  00000-0 0  9990
2 35493   0.0152 291.8724 0001104  76.9936  67.1428  1.00270024 20739
INTELSAT 14 (IS-14)     
1 36097U 09064A   19135.85018352 -.00000287  00000-0  00000-0 0  9993
2 36097   0.0125 283.2799 0002710 128.6163  82.4522  1.00269104 34746
INTELSAT 15 (IS-15)     
1 36106U 09067A   19136.09424358 -.00000198  00000-0  00000+0 0  9991
2 36106   0.0141 317.8375 0002586 100.5246 294.2244  1.00268449 34634
DIRECTV 12              
1 36131U 09075A   19135.56867368 -.00000117  00000-0  00000+0 0  9992
2 36131   0.0328 141.7647 0000326 261.1178 292.0436  1.00271538 34411
INTELSAT 16 (IS-16)     
1 36397U 10006A   19136.09979958 -.00000258  00000-0  00000+0 0  9996
2 36397   0.0108 315.4320 0002313 100.8201 136.9989  1.00270240 33779
XM-5                    
1 37185U 10053A   19136.10535375 -.00000218  00000-0  00000+0 0  9993
2 37185   0.0208 296.4681 0000875  40.2263 209.5414  1.00268657 31485
INTELSAT 17 (IS-17)     
1 37238U 10065B   19136.15943479 -.00000015  00000-0  00000+0 0  9993
2 37238   0.0202 261.7995 0002718 148.9930 306.2000  1.00271002 30962
INTELSAT NEW DAWN       
1 37392U 11016A   19136.26507502  .00000142  00000-0  00000+0 0  9996
2 37392   0.0430 126.5089 0000932 288.6048 306.8068  1.00271907 29553
INTELSAT 18 (IS-18)     
1 37834U 11056A   19135.82331486  .00000039  00000-0  00000-0 0  9994
2 37834   0.0165 288.3354 0002747 138.5440 282.7681  1.00271698 27970
INTELSAT 22 (IS-22)     
1 38098U 12011A   19136.34563119 -.00000072  00000-0  00000+0 0  9994
2 38098   0.0051 108.4522 0002590 312.4227   9.4264  1.00271936 26096
INTELSAT 19 (IS-19)     
1 38356U 12030A   19136.28958220 -.00000070  00000-0  00000+0 0  9994
2 38356   0.0131 338.9418 0003058  73.2411  91.7821  1.00272631 25559
INTELSAT 20 (IS-20)     
1 38740U 12043A   19136.34563119 -.00000038  00000-0  00000+0 0  9995
2 38740   0.0066 279.4855 0001331 283.0250 224.1899  1.00271620 24879
INTELSAT 21 (IS-21)     
1 38749U 12045A   19135.84765368 -.00000298  00000-0  00000-0 0  9999
2 38749   0.0136 287.1010 0002064 124.9256  68.3940  1.00269259 24586
INTELSAT 23 (IS-23)     
1 38867U 12057A   19136.23146078 -.00000298  00000-0  00000+0 0  9997
2 38867   0.0123 285.6920 0001854 119.0261 219.2417  1.00273182 24141
SIRIUS FM-6             
1 39360U 13058A   19136.12314465 -.00000031  00000-0  00000+0 0  9998
2 39360   0.0134 327.7140 0000577 259.0724 294.9452  1.00272390 20385
INTELSAT 30 (IS-30)     
1 40271U 14062A   19136.11091069 -.00000164  00000-0  00000+0 0  9995
2 40271   0.0179 294.8834 0001600 153.1399  90.3785  1.00270889 16801
INTELSAT 34 (IS-34)     
1 40874U 15039A   19136.42675633 -.00000299  00000-0  00000+0 0  9997
2 40874   0.0144 293.4602 0000323  38.2379   0.2847  1.00270177 13718
INTELSAT 29E (IS-29E)   
1 41308U 16004A   19135.85751133 -.00000028  00000-0  00000+0 0  9999
2 41308   0.1161  98.5696 0029138 307.6153 126.9942  1.00589088 12193
INTELSAT 31 (IS-31)     
1 41581U 16035A   19135.80257740 -.00000164  00000-0  00000-0 0  9998
2 41581   0.0150 256.9731 0002150 319.8504 210.2813  1.00270569 10679
INTELSAT 36 (IS-36)     
1 41747U 16053A   19136.34563119 -.00000038  00000-0  00000+0 0  9991
2 41747   0.0114 338.0896 0001144  13.5103  75.0866  1.00271529 10001
INTELSAT 33E (IS-33E)   
1 41748U 16053B   19135.95809925  .00000035  00000-0  00000-0 0  9993
2 41748   0.0160 343.8175 0002187  86.8862 207.5906  1.00271427 10295
INTELSAT 32E (IS-32E)   
1 41945U 17007B   19136.14493645 -.00000283  00000-0  00000+0 0  9997
2 41945   0.0127 306.3733 0000260  85.3172 210.8630  1.00266886  8289
INTELSAT 35E (IS-35E)   
1 42818U 17041A   19135.85210271 -.00000251  00000-0  00000-0 0  9990
2 42818   0.0261 185.0092 0001851 217.8572 102.6688  1.00272992  6915
INTELSAT 37E (IS-37E)   
1 42950U 17059A   19135.92341076 -.00000155  00000-0  00000-0 0  9995
2 42950   0.0187 289.5648 0002814 132.9362 125.2717  1.00270011  6093
AZERSPACE 2 (IS-38)     
1 43632U 18074A   19135.86160738  .00000122  00000-0  00000-0 0  9991
2 43632   0.0136 291.7174 0001687 124.4060 172.4627  1.00271202  2556
HORIZONS 3E             
1 43633U 18074B   19136.18002247 -.00000044  00000-0  00000+0 0  9991
2 43633   0.0344  78.1448 0000325  68.8681 320.3894  1.00271746  2392
